CCSDS_OMM_VERS = 2.0
CREATION_DATE  = 
ORIGINATOR     = 

OBJECT_NAME    = HTV-X1
OBJECT_ID      = 2025-241A
CENTER_NAME    = EARTH
REF_FRAME      = TEME
TIME_SYSTEM    = UTC
MEAN_ELEMENT_THEORY = SGP/SGP4

EPOCH          = 2026-03-27T21:49:49.372608
MEAN_MOTION    = 15.32425210
ECCENTRICITY   = .00073466
INCLINATION    = 51.6385
RA_OF_ASC_NODE = 345.2742
ARG_OF_PERICENTER = 241.6912
MEAN_ANOMALY   = 118.3328

EPHEMERIS_TYPE = 0
CLASSIFICATION_TYPE = U
NORAD_CAT_ID   = 66174
ELEMENT_SET_NO = 999
REV_AT_EPOCH   = 2373
BSTAR          = .93452581E-4
MEAN_MOTION_DOT = .26E-4
MEAN_MOTION_DDOT = 0

CCSDS_OMM_VERS = 2.0
CREATION_DATE  = 
ORIGINATOR     = 

OBJECT_NAME    = SZ-21 MODULE
OBJECT_ID      = 2025-246C
CENTER_NAME    = EARTH
REF_FRAME      = TEME
TIME_SYSTEM    = UTC
MEAN_ELEMENT_THEORY = SGP/SGP4

EPOCH          = 2026-03-27T16:50:49.909056
MEAN_MOTION    = 15.69915920
ECCENTRICITY   = .00014544
INCLINATION    = 41.4743
RA_OF_ASC_NODE = 92.3645
ARG_OF_PERICENTER = 209.3733
MEAN_ANOMALY   = 150.7028

EPHEMERIS_TYPE = 0
CLASSIFICATION_TYPE = U
NORAD_CAT_ID   = 66515
ELEMENT_SET_NO = 999
REV_AT_EPOCH   = 2090
BSTAR          = .30140428E-3
MEAN_MOTION_DOT = .37039E-3
MEAN_MOTION_DDOT = 0

CCSDS_OMM_VERS = 2.0
CREATION_DATE  = 
ORIGINATOR     = 

OBJECT_NAME    = SHENZHOU-22
OBJECT_ID      = 2025-272A
CENTER_NAME    = EARTH
REF_FRAME      = TEME
TIME_SYSTEM    = UTC
MEAN_ELEMENT_THEORY = SGP/SGP4

EPOCH          = 2026-03-27T19:40:26.533056
MEAN_MOTION    = 15.61560654
ECCENTRICITY   = .00041613
INCLINATION    = 41.4669
RA_OF_ASC_NODE = 97.7682
ARG_OF_PERICENTER = 40.1011
MEAN_ANOMALY   = 320.0134

EPHEMERIS_TYPE = 0
CLASSIFICATION_TYPE = U
NORAD_CAT_ID   = 66645
ELEMENT_SET_NO = 999
REV_AT_EPOCH   = 28028
BSTAR          = .18751186E-3
MEAN_MOTION_DOT = .16258E-3
MEAN_MOTION_DDOT = 0

CCSDS_OMM_VERS = 2.0
CREATION_DATE  = 
ORIGINATOR     = 

OBJECT_NAME    = SOYUZ-MS 28
OBJECT_ID      = 2025-275A
CENTER_NAME    = EARTH
REF_FRAME      = TEME
TIME_SYSTEM    = UTC
MEAN_ELEMENT_THEORY = SGP/SGP4

EPOCH          = 2026-03-27T20:12:32.651712
MEAN_MOTION    = 15.48591753
ECCENTRICITY   = .0006212
INCLINATION    = 51.6344
RA_OF_ASC_NODE = 342.6225
ARG_OF_PERICENTER = 240.1567
MEAN_ANOMALY   = 119.8804

EPHEMERIS_TYPE = 0
CLASSIFICATION_TYPE = U
NORAD_CAT_ID   = 66664
ELEMENT_SET_NO = 999
REV_AT_EPOCH   = 55771
BSTAR          = .22728466E-3
MEAN_MOTION_DOT = .1192E-3
MEAN_MOTION_DDOT = 0

CCSDS_OMM_VERS = 2.0
CREATION_DATE  = 
ORIGINATOR     = 

OBJECT_NAME    = DUPLEX
OBJECT_ID      = 1998-067XS
CENTER_NAME    = EARTH
REF_FRAME      = TEME
TIME_SYSTEM    = UTC
MEAN_ELEMENT_THEORY = SGP/SGP4

EPOCH          = 2026-03-27T07:16:43.345344
MEAN_MOTION    = 15.57391828
ECCENTRICITY   = .0002793
INCLINATION    = 51.6305
RA_OF_ASC_NODE = 341.2773
ARG_OF_PERICENTER = 193.7351
MEAN_ANOMALY   = 166.3565

EPHEMERIS_TYPE = 0
CLASSIFICATION_TYPE = U
NORAD_CAT_ID   = 66906
ELEMENT_SET_NO = 999
REV_AT_EPOCH   = 1787
BSTAR          = .40157E-3
MEAN_MOTION_DOT = .29604E-3
MEAN_MOTION_DDOT = 0

CCSDS_OMM_VERS = 2.0
CREATION_DATE  = 
ORIGINATOR     = 

OBJECT_NAME    = ISS OBJECT XT
OBJECT_ID      = 1998-067XT
CENTER_NAME    = EARTH
REF_FRAME      = TEME
TIME_SYSTEM    = UTC
MEAN_ELEMENT_THEORY = SGP/SGP4

EPOCH          = 2026-03-27T22:47:38.675616
MEAN_MOTION    = 15.75905489
ECCENTRICITY   = .0005979
INCLINATION    = 51.6251
RA_OF_ASC_NODE = 332.0576
ARG_OF_PERICENTER = 198.5747
MEAN_ANOMALY   = 161.5035

EPHEMERIS_TYPE = 0
CLASSIFICATION_TYPE = U
NORAD_CAT_ID   = 66907
ELEMENT_SET_NO = 999
REV_AT_EPOCH   = 1805
BSTAR          = .13178926E-2
MEAN_MOTION_DOT = .213192E-2
MEAN_MOTION_DDOT = 0

CCSDS_OMM_VERS = 2.0
CREATION_DATE  = 
ORIGINATOR     = 

OBJECT_NAME    = ISS OBJECT XU
OBJECT_ID      = 1998-067XU
CENTER_NAME    = EARTH
REF_FRAME      = TEME
TIME_SYSTEM    = UTC
MEAN_ELEMENT_THEORY = SGP/SGP4

EPOCH          = 2026-03-27T22:42:22.936320
MEAN_MOTION    = 15.76158295
ECCENTRICITY   = .00061121
INCLINATION    = 51.6246
RA_OF_ASC_NODE = 332.0289
ARG_OF_PERICENTER = 197.8557
MEAN_ANOMALY   = 162.2229

EPHEMERIS_TYPE = 0
CLASSIFICATION_TYPE = U
NORAD_CAT_ID   = 66908
ELEMENT_SET_NO = 999
REV_AT_EPOCH   = 1805
BSTAR          = .13515155E-2
MEAN_MOTION_DOT = .221315E-2
MEAN_MOTION_DDOT = 0

CCSDS_OMM_VERS = 2.0
CREATION_DATE  = 
ORIGINATOR     = 

OBJECT_NAME    = SILVERSAT
OBJECT_ID      = 1998-067XV
CENTER_NAME    = EARTH
REF_FRAME      = TEME
TIME_SYSTEM    = UTC
MEAN_ELEMENT_THEORY = SGP/SGP4

EPOCH          = 2026-03-27T21:40:04.702944
MEAN_MOTION    = 15.81205701
ECCENTRICITY   = .00068794
INCLINATION    = 51.6215
RA_OF_ASC_NODE = 330.9786
ARG_OF_PERICENTER = 203.2029
MEAN_ANOMALY   = 156.8663

EPHEMERIS_TYPE = 0
CLASSIFICATION_TYPE = U
NORAD_CAT_ID   = 66909
ELEMENT_SET_NO = 999
REV_AT_EPOCH   = 1806
BSTAR          = .14718673E-2
MEAN_MOTION_DOT = .305847E-2
MEAN_MOTION_DDOT = 0

CCSDS_OMM_VERS = 2.0
CREATION_DATE  = 
ORIGINATOR     = 

OBJECT_NAME    = ISS OBJECT XW
OBJECT_ID      = 1998-067XW
CENTER_NAME    = EARTH
REF_FRAME      = TEME
TIME_SYSTEM    = UTC
MEAN_ELEMENT_THEORY = SGP/SGP4

EPOCH          = 2026-03-27T22:56:45.532320
MEAN_MOTION    = 15.74510709
ECCENTRICITY   = .00062738
INCLINATION    = 51.6241
RA_OF_ASC_NODE = 332.0927
ARG_OF_PERICENTER = 195.6570
MEAN_ANOMALY   = 164.4236

EPHEMERIS_TYPE = 0
CLASSIFICATION_TYPE = U
NORAD_CAT_ID   = 66910
ELEMENT_SET_NO = 999
REV_AT_EPOCH   = 1805
BSTAR          = .12307852E-2
MEAN_MOTION_DOT = .186723E-2
MEAN_MOTION_DDOT = 0

CCSDS_OMM_VERS = 2.0
CREATION_DATE  = 
ORIGINATOR     = 

OBJECT_NAME    = ISS OBJECT XX
OBJECT_ID      = 1998-067XX
CENTER_NAME    = EARTH
REF_FRAME      = TEME
TIME_SYSTEM    = UTC
MEAN_ELEMENT_THEORY = SGP/SGP4

EPOCH          = 2026-03-27T20:21:32.524704
MEAN_MOTION    = 15.87462812
ECCENTRICITY   = .00085397
INCLINATION    = 51.6197
RA_OF_ASC_NODE = 329.8299
ARG_OF_PERICENTER = 207.5646
MEAN_ANOMALY   = 152.4906

EPHEMERIS_TYPE = 0
CLASSIFICATION_TYPE = U
NORAD_CAT_ID   = 66911
ELEMENT_SET_NO = 999
REV_AT_EPOCH   = 1806
BSTAR          = .15431978E-2
MEAN_MOTION_DOT = .439339E-2
MEAN_MOTION_DDOT = 0

CCSDS_OMM_VERS = 2.0
CREATION_DATE  = 
ORIGINATOR     = 

OBJECT_NAME    = ISS OBJECT XY
OBJECT_ID      = 1998-067XY
CENTER_NAME    = EARTH
REF_FRAME      = TEME
TIME_SYSTEM    = UTC
MEAN_ELEMENT_THEORY = SGP/SGP4

EPOCH          = 2026-03-27T21:39:13.834080
MEAN_MOTION    = 15.67363822
ECCENTRICITY   = .00042449
INCLINATION    = 51.6271
RA_OF_ASC_NODE = 334.7643
ARG_OF_PERICENTER = 194.9010
MEAN_ANOMALY   = 165.1862

EPHEMERIS_TYPE = 0
CLASSIFICATION_TYPE = U
NORAD_CAT_ID   = 66912
ELEMENT_SET_NO = 999
REV_AT_EPOCH   = 1800
BSTAR          = .94456499E-3
MEAN_MOTION_DOT = .104881E-2
MEAN_MOTION_DDOT = 0

CCSDS_OMM_VERS = 2.0
CREATION_DATE  = 
ORIGINATOR     = 

OBJECT_NAME    = KNACKSAT-2
OBJECT_ID      = 1998-067XZ
CENTER_NAME    = EARTH
REF_FRAME      = TEME
TIME_SYSTEM    = UTC
MEAN_ELEMENT_THEORY = SGP/SGP4

EPOCH          = 2026-03-27T10:17:06.366624
MEAN_MOTION    = 15.53279398
ECCENTRICITY   = .0009914
INCLINATION    = 51.6325
RA_OF_ASC_NODE = 343.6129
ARG_OF_PERICENTER = 250.0621
MEAN_ANOMALY   = 109.9301

EPHEMERIS_TYPE = 0
CLASSIFICATION_TYPE = U
NORAD_CAT_ID   = 67683
ELEMENT_SET_NO = 999
REV_AT_EPOCH   = 754
BSTAR          = .57723E-3
MEAN_MOTION_DOT = .36813E-3
MEAN_MOTION_DDOT = 0

