HTV-X1                  
1 66174U 25241A   26086.90959922  .00002600  00000+0  93453-4 0  9990
2 66174  51.6385 345.2742 0007346 241.6912 118.3328 15.32425210 23732
SZ-21 MODULE            
1 66515U 25246C   26086.70196654  .00037039  00000+0  30140-3 0  9994
2 66515  41.4743  92.3645 0001454 209.3733 150.7028 15.69915920 20909
SHENZHOU-22             
1 66645U 25272A   26086.81975154  .00016258  00000+0  18751-3 0  9993
2 66645  41.4669  97.7682 0004161  40.1011 320.0134 15.61560654280289
SOYUZ-MS 28             
1 66664U 25275A   26086.84204458  .00011920  00000+0  22728-3 0  9992
2 66664  51.6344 342.6225 0006212 240.1567 119.8804 15.48591753557717
DUPLEX                  
1 66906U 98067XS  26086.30327946  .00029604  00000+0  40157-3 0  9993
2 66906  51.6305 341.2773 0002793 193.7351 166.3565 15.57391828 17870
ISS OBJECT XT           
1 66907U 98067XT  26086.94975319  .00213192  00000+0  13179-2 0  9997
2 66907  51.6251 332.0576 0005979 198.5747 161.5035 15.75905489 18055
ISS OBJECT XU           
1 66908U 98067XU  26086.94609880  .00221315  00000+0  13515-2 0  9995
2 66908  51.6246 332.0289 0006112 197.8557 162.2229 15.76158295 18051
SILVERSAT               
1 66909U 98067XV  26086.90283221  .00305847  00000+0  14719-2 0  9999
2 66909  51.6215 330.9786 0006879 203.2029 156.8663 15.81205701 18066
ISS OBJECT XW           
1 66910U 98067XW  26086.95608255  .00186723  00000+0  12308-2 0  9996
2 66910  51.6241 332.0927 0006273 195.6570 164.4236 15.74510709 18059
ISS OBJECT XX           
1 66911U 98067XX  26086.84829311  .00439339  00000+0  15432-2 0  9998
2 66911  51.6197 329.8299 0008539 207.5646 152.4906 15.87462812 18067
ISS OBJECT XY           
1 66912U 98067XY  26086.90224345  .00104881  00000+0  94456-3 0  9997
2 66912  51.6271 334.7643 0004244 194.9010 165.1862 15.67363822 18007
KNACKSAT-2              
1 67683U 98067XZ  26086.42854591  .00036813  00000+0  57723-3 0  9997
2 67683  51.6325 343.6129 0009914 250.0621 109.9301 15.53279398  7542
